[{"OBJECT_NAME":"STARLINK-34626","OBJECT_ID":"2025-167E","EPOCH":"2026-03-09T22:48:23.488704","MEAN_MOTION":15.30163254,"ECCENTRICITY":0.00014881,"INCLINATION":53.1604,"RA_OF_ASC_NODE":25.2534,"ARG_OF_PERICENTER":79.2368,"MEAN_ANOMALY":280.88,"EPHEMERIS_TYPE":0,"CLASSIFICATION_TYPE":"U","NORAD_CAT_ID":65082,"ELEMENT_SET_NO":999,"REV_AT_EPOCH":3352,"BSTAR":0.00094352376,"MEAN_MOTION_DOT":0.00027658,"MEAN_MOTION_DDOT":0},{"OBJECT_NAME":"TRANSPORTER-1 OBJECT Z","OBJECT_ID":"2021-006Z","EPOCH":"2026-03-09T22:55:57.522432","MEAN_MOTION":15.30965056,"ECCENTRICITY":0.00100878,"INCLINATION":97.2377,"RA_OF_ASC_NODE":113.4736,"ARG_OF_PERICENTER":179.6869,"MEAN_ANOMALY":180.438,"EPHEMERIS_TYPE":0,"CLASSIFICATION_TYPE":"U","NORAD_CAT_ID":47436,"ELEMENT_SET_NO":999,"REV_AT_EPOCH":28420,"BSTAR":0.00024088983,"MEAN_MOTION_DOT":7.143e-5,"MEAN_MOTION_DDOT":0}]
